SUOMI NPP               
1 37849U 11061A   26200.62309333  .00000018  00000+0  29392-4 0  9996
2 37849  98.7955 141.2788 0000968 193.3941 166.7209 14.19523117763045
YAOGAN-12               
1 37875U 11066B   26200.64241780  .00002118  00000+0  82634-4 0  9994
2 37875  97.1122 237.6881 0010998 109.1670 251.0761 15.26911384816995
BEIDOU-2 M4             
1 38251U 12018B   26199.26464312 -.00000089  00000+0  00000+0 0  9992
2 38251  55.6290 303.0389 0012176 272.1376  87.7565  1.86229286 96523
ARIRANG-3 (KOMPSAT-3)   
1 38338U 12025B   26200.60535336  .00000175  00000+0  44057-4 0  9992
2 38338  98.1188 157.5098 0005952  26.8704 333.2805 14.62231048756086
METOP-B                 
1 38771U 12049A   26200.56940167  .00000031  00000+0  33941-4 0  9997
2 38771  98.6486 251.4196 0001241 231.3369 128.7697 14.21447151717861
SJ-9A                   
1 38860U 12056A   26200.56397401  .00000506  00000+0  64272-4 0  9999
2 38860  97.6732 171.3498 0026346 147.7782 212.5050 14.85533375704393
COSMOS 2484 (RODNIK-S 6)
1 39059U 13001C   26200.58493912 -.00000029  00000+0 -28259-3 0  9993
2 39059  82.4998 201.7501 0025467 325.8547  34.0894 12.42940394612580
SARAL                   
1 39086U 13009A   26200.58153191  .00000020  00000+0  23240-4 0  9998
2 39086  98.5559  26.7393 0001962 156.6844 203.4429 14.32896449700248
STRAND-1                
1 39090U 13009E   26200.49956115  .00000108  00000+0  50737-4 0  9998
2 39090  98.3939  19.9412 0009610 129.5054 230.6984 14.37180292701706
BRITE-AUSTRIA           
1 39091U 13009F   26200.45681733  .00000061  00000+0  35166-4 0  9993
2 39091  98.4012  19.0965 0010984 138.8360 221.3657 14.36553452701685
GAOFEN-1                
1 39150U 13018A   26200.59154442  .00000513  00000+0  80782-4 0  9992
2 39150  97.9079 271.9987 0017458 157.2901 202.9085 14.76522740713021
NEE-01 PEGASO           
1 39151U 13018B   26200.35248444  .00001491  00000+0  14616-3 0  9991
2 39151  98.1263 345.5756 0013570  62.0509 298.2082 14.93800794715507
PROBA-V                 
1 39159U 13021A   26200.45004703  .00000015  00000+0  24486-4 0  9990
2 39159  98.3608 177.4676 0005090  50.2807 309.8821 14.23603794685703
ARIRANG-5 (KOMPSAT-5)   
1 39227U 13042A   26200.62214462 -.00000250  00000+0 -13521-4 0  9994
2 39227  97.6203  26.8667 0004887  45.7334 314.4293 15.04494562708731
GONETS-M 5              
1 39249U 13048A   26200.55513682 -.00000014  00000+0 -17480-3 0  9997
2 39249  82.4861 323.2034 0017495 140.6270 219.6085 12.42892456582909
GONETS-M 7              
1 39251U 13048C   26200.59800112 -.00000022  00000+0 -22955-3 0  9993
2 39251  82.4929 326.1157 0018289 141.7742 218.4638 12.42915259582866
FENGYUN 3C              
1 39260U 13052A   26200.62421834  .00000015  00000+0  28884-4 0  9990
2 39260  98.5003 173.0136 0013523 292.2660  67.7081 14.15761218663155
CASSIOPE                
1 39265U 13055A   26200.60666191  .00015417 -52806-6  16492-3 0  9995
2 39265  80.9135  27.2620 0282058 312.9158  44.8707 15.27565710672617
APRIZESAT 7             
1 39416U 13066A   26200.42132201  .00000722  00000+0  76685-4 0  9990
2 39416  97.7723 153.1819 0037316 103.8592 256.6783 14.91624649686032
ZACUBE-1 (TSHEPISOSAT)  
1 39417U 13066B   26200.46684057  .00001295  00000+0  10340-3 0  9997
2 39417  97.8002 162.9610 0044074 141.4963 218.9420 15.01340040685579
APRIZESAT 8             
1 39425U 13066K   26200.42640236  .00000364  00000+0  45408-4 0  9993
2 39425  97.8231 147.4480 0045871 177.9020 182.2398 14.87699867684460
