OBJECT_NAME,OBJECT_ID,EPOCH,MEAN_MOTION,ECCENTRICITY,INCLINATION,RA_OF_ASC_NODE,ARG_OF_PERICENTER,MEAN_ANOMALY,EPHEMERIS_TYPE,CLASSIFICATION_TYPE,NORAD_CAT_ID,ELEMENT_SET_NO,REV_AT_EPOCH,BSTAR,MEAN_MOTION_DOT,MEAN_MOTION_DDOT
SUOMI NPP,2011-061A,2026-07-19T14:57:15.263712,14.19523117,.00009689,98.7955,141.2788,193.3941,166.7209,0,U,37849,999,76304,.29392282E-4,.18E-6,0
YAOGAN-12,2011-066B,2026-07-19T15:25:04.897920,15.26911384,.00109988,97.1122,237.6881,109.1670,251.0761,0,U,37875,999,81699,.82633834E-4,.2118E-4,0
BEIDOU-2 M4,2012-018B,2026-07-18T06:21:05.165568,1.86229286,.00121764,55.6290,303.0389,272.1376,87.7565,0,U,38251,999,9652,0,-.89E-6,0
ARIRANG-3 (KOMPSAT-3),2012-025B,2026-07-19T14:31:42.530304,14.62231048,.00059525,98.1188,157.5098,26.8704,333.2805,0,U,38338,999,75608,.44056846E-4,.175E-5,0
METOP-B,2012-049A,2026-07-19T13:39:56.304288,14.21447151,.0001241,98.6486,251.4196,231.3369,128.7697,0,U,38771,999,71786,.3394142E-4,.31E-6,0
SJ-9A,2012-056A,2026-07-19T13:32:07.354464,14.85533375,.00263465,97.6732,171.3498,147.7782,212.5050,0,U,38860,999,70439,.64272391E-4,.506E-5,0
COSMOS 2484 (RODNIK-S 6),2013-001C,2026-07-19T14:02:18.739968,12.42940394,.00254671,82.4998,201.7501,325.8547,34.0894,0,U,39059,999,61258,-.28258743E-3,-.29E-6,0
SARAL,2013-009A,2026-07-19T13:57:24.357024,14.32896449,.00019625,98.5559,26.7393,156.6844,203.4429,0,U,39086,999,70024,.23239981E-4,.2E-6,0
STRAND-1,2013-009E,2026-07-19T11:59:22.083360,14.37180292,.00096104,98.3939,19.9412,129.5054,230.6984,0,U,39090,999,70170,.50736694E-4,.108E-5,0
BRITE-AUSTRIA,2013-009F,2026-07-19T10:57:49.017312,14.36553452,.00109845,98.4012,19.0965,138.8360,221.3657,0,U,39091,999,70168,.35165936E-4,.61E-6,0
GAOFEN-1,2013-018A,2026-07-19T14:11:49.437888,14.76522740,.00174583,97.9079,271.9987,157.2901,202.9085,0,U,39150,999,71302,.80781799E-4,.513E-5,0
NEE-01 PEGASO,2013-018B,2026-07-19T08:27:34.655616,14.93800794,.00135702,98.1263,345.5756,62.0509,298.2082,0,U,39151,999,71550,.14615917E-3,.1491E-4,0
PROBA-V,2013-021A,2026-07-19T10:48:04.063392,14.23603794,.00050906,98.3608,177.4676,50.2807,309.8821,0,U,39159,999,68570,.24486275E-4,.15E-6,0
ARIRANG-5 (KOMPSAT-5),2013-042A,2026-07-19T14:55:53.295168,15.04494562,.00048875,97.6203,26.8667,45.7334,314.4293,0,U,39227,999,70873,-.13521491E-4,-.25E-5,0
GONETS-M 5,2013-048A,2026-07-19T13:19:23.821248,12.42892456,.00174951,82.4861,323.2034,140.6270,219.6085,0,U,39249,999,58290,-.17480465E-3,-.14E-6,0
GONETS-M 7,2013-048C,2026-07-19T14:21:07.296768,12.42915259,.00182897,82.4929,326.1157,141.7742,218.4638,0,U,39251,999,58286,-.22954675E-3,-.22E-6,0
FENGYUN 3C,2013-052A,2026-07-19T14:58:52.464576,14.15761218,.00135232,98.5003,173.0136,292.2660,67.7081,0,U,39260,999,66315,.2888445E-4,.15E-6,0
CASSIOPE,2013-055A,2026-07-19T14:33:35.589024,15.27565710,.02820588,80.9135,27.2620,312.9158,44.8707,0,U,39265,999,67261,.16492236E-3,.15417E-3,-.528056E-6
APRIZESAT 7,2013-066A,2026-07-19T10:06:42.221664,14.91624649,.0037316,97.7723,153.1819,103.8592,256.6783,0,U,39416,999,68603,.76684652E-4,.722E-5,0
ZACUBE-1 (TSHEPISOSAT),2013-066B,2026-07-19T11:12:15.025248,15.01340040,.00440746,97.8002,162.9610,141.4963,218.9420,0,U,39417,999,68557,.10340189E-3,.1295E-4,0
APRIZESAT 8,2013-066K,2026-07-19T10:14:01.163904,14.87699867,.00458714,97.8231,147.4480,177.9020,182.2398,0,U,39425,999,68446,.45407698E-4,.364E-5,0
